{
  "type": "FeatureCollection",
  "features": [
    {
      "type": "Feature",
      "properties": {
        "norad_id": 36269,
        "name": "FENGYUN 1C DEB",
        "group": "fengyun-1c-debris",
        "lat": -38.96962536103855,
        "lon": -59.84414036592731,
        "alt_km": 702.151056969341,
        "timestamp": "2025-12-16T13:52:37.811784+00:00",
        "meta_object_name": "FENGYUN 1C DEB",
        "meta_object_id": "1999-025DWW",
        "meta_epoch": "2025-12-14T01:28:51.707712",
        "meta_mean_motion": 14.27043075,
        "meta_eccentricity": 0.02331074,
        "meta_inclination": 99.1079,
        "meta_ra_of_asc_node": 290.0784,
        "meta_arg_of_pericenter": 275.9651,
        "meta_mean_anomaly": 81.5008,
        "meta_ephemeris_type": 0,
        "meta_classification_type": "U",
        "meta_norad_cat_id": 36269,
        "meta_element_set_no": 999,
        "meta_rev_at_epoch": 87735,
        "meta_bstar": 0.00079666975,
        "meta_mean_motion_dot": 2.532e-05,
        "meta_mean_motion_ddot": 0,
        "tle_line1": "1 36269U 99025DWW 25348.06170958  .00002532  00000+0  79667-3 0  9998",
        "tle_line2": "2 36269  99.1079 290.0784 0233107 275.9651  81.5008 14.27043075877359"
      },
      "geometry": {
        "type": "Point",
        "coordinates": [
          -59.84414036592731,
          -38.96962536103855
        ]
      }
    },
    {
      "type": "Feature",
      "properties": {
        "norad_id": 36272,
        "name": "FENGYUN 1C DEB",
        "group": "fengyun-1c-debris",
        "lat": -80.84077982058186,
        "lon": -39.47231521784159,
        "alt_km": 723.456453393771,
        "timestamp": "2025-12-16T13:52:37.811794+00:00",
        "meta_object_name": "FENGYUN 1C DEB",
        "meta_object_id": "1999-025DWZ",
        "meta_epoch": "2025-12-15T09:29:34.780416",
        "meta_mean_motion": 14.17259115,
        "meta_eccentricity": 0.01679127,
        "meta_inclination": 99.1362,
        "meta_ra_of_asc_node": 225.7589,
        "meta_arg_of_pericenter": 260.5869,
        "meta_mean_anomaly": 97.6289,
        "meta_ephemeris_type": 0,
        "meta_classification_type": "U",
        "meta_norad_cat_id": 36272,
        "meta_element_set_no": 999,
        "meta_rev_at_epoch": 63654,
        "meta_bstar": 0.00052291356,
        "meta_mean_motion_dot": 1.164e-05,
        "meta_mean_motion_ddot": 0,
        "tle_line1": "1 36272U 99025DWZ 25349.39554144  .00001164  00000+0  52291-3 0  9996",
        "tle_line2": "2 36272  99.1362 225.7589 0167912 260.5869  97.6289 14.17259115636543"
      },
      "geometry": {
        "type": "Point",
        "coordinates": [
          -39.47231521784159,
          -80.84077982058186
        ]
      }
    },
    {
      "type": "Feature",
      "properties": {
        "norad_id": 36273,
        "name": "FENGYUN 1C DEB",
        "group": "fengyun-1c-debris",
        "lat": -61.14646002363429,
        "lon": 22.433248150316707,
        "alt_km": 849.9192099112361,
        "timestamp": "2025-12-16T13:52:37.811804+00:00",
        "meta_object_name": "FENGYUN 1C DEB",
        "meta_object_id": "1999-025DXA",
        "meta_epoch": "2025-12-10T21:07:00.418080",
        "meta_mean_motion": 14.16564043,
        "meta_eccentricity": 0.0096501,
        "meta_inclination": 99.6045,
        "meta_ra_of_asc_node": 214.1863,
        "meta_arg_of_pericenter": 353.8475,
        "meta_mean_anomaly": 6.1504,
        "meta_ephemeris_type": 0,
        "meta_classification_type": "U",
        "meta_norad_cat_id": 36273,
        "meta_element_set_no": 999,
        "meta_rev_at_epoch": 66207,
        "meta_bstar": 0.00042955,
        "meta_mean_motion_dot": 8.45e-06,
        "meta_mean_motion_ddot": 0,
        "tle_line1": "1 36273U 99025DXA 25344.87986595  .00000845  00000+0  42955-3 0  9995",
        "tle_line2": "2 36273  99.6045 214.1863 0096501 353.8475   6.1504 14.16564043662078"
      },
      "geometry": {
        "type": "Point",
        "coordinates": [
          22.433248150316707,
          -61.14646002363429
        ]
      }
    },
    {
      "type": "Feature",
      "properties": {
        "norad_id": 36274,
        "name": "FENGYUN 1C DEB",
        "group": "fengyun-1c-debris",
        "lat": -6.060132949011513,
        "lon": 65.86276310398308,
        "alt_km": 848.3939672181423,
        "timestamp": "2025-12-16T13:52:37.811815+00:00",
        "meta_object_name": "FENGYUN 1C DEB",
        "meta_object_id": "1999-025DXB",
        "meta_epoch": "2025-12-09T11:35:55.514688",
        "meta_mean_motion": 14.23402311,
        "meta_eccentricity": 0.00622561,
        "meta_inclination": 99.139,
        "meta_ra_of_asc_node": 57.5181,
        "meta_arg_of_pericenter": 239.4806,
        "meta_mean_anomaly": 136.1937,
        "meta_ephemeris_type": 0,
        "meta_classification_type": "U",
        "meta_norad_cat_id": 36274,
        "meta_element_set_no": 999,
        "meta_rev_at_epoch": 62939,
        "meta_bstar": 0.0044809329,
        "meta_mean_motion_dot": 0.00010342,
        "meta_mean_motion_ddot": 0,
        "tle_line1": "1 36274U 99025DXB 25343.48328142  .00010342  00000+0  44809-2 0  9992",
        "tle_line2": "2 36274  99.1390  57.5181 0062256 239.4806 136.1937 14.23402311629395"
      },
      "geometry": {
        "type": "Point",
        "coordinates": [
          65.86276310398308,
          -6.060132949011513
        ]
      }
    },
    {
      "type": "Feature",
      "properties": {
        "norad_id": 36278,
        "name": "FENGYUN 1C DEB",
        "group": "fengyun-1c-debris",
        "lat": 42.169889370270546,
        "lon": 97.34122618835693,
        "alt_km": 865.6069726497453,
        "timestamp": "2025-12-16T13:52:37.811824+00:00",
        "meta_object_name": "FENGYUN 1C DEB",
        "meta_object_id": "1999-025DXF",
        "meta_epoch": "2025-12-14T12:05:44.621088",
        "meta_mean_motion": 14.17383714,
        "meta_eccentricity": 0.00607539,
        "meta_inclination": 99.124,
        "meta_ra_of_asc_node": 266.8428,
        "meta_arg_of_pericenter": 285.9616,
        "meta_mean_anomaly": 73.487,
        "meta_ephemeris_type": 0,
        "meta_classification_type": "U",
        "meta_norad_cat_id": 36278,
        "meta_element_set_no": 999,
        "meta_rev_at_epoch": 93501,
        "meta_bstar": 0.0005362751,
        "meta_mean_motion_dot": 1.058e-05,
        "meta_mean_motion_ddot": 0,
        "tle_line1": "1 36278U 99025DXF 25348.50398867  .00001058  00000+0  53628-3 0  9999",
        "tle_line2": "2 36278  99.1240 266.8428 0060753 285.9616  73.4870 14.17383714935013"
      },
      "geometry": {
        "type": "Point",
        "coordinates": [
          97.34122618835693,
          42.169889370270546
        ]
      }
    },
    {
      "type": "Feature",
      "properties": {
        "norad_id": 36279,
        "name": "FENGYUN 1C DEB",
        "group": "fengyun-1c-debris",
        "lat": 53.51210419383244,
        "lon": 160.1764425646004,
        "alt_km": 830.9410861631259,
        "timestamp": "2025-12-16T13:52:37.811834+00:00",
        "meta_object_name": "FENGYUN 1C DEB",
        "meta_object_id": "1999-025DXG",
        "meta_epoch": "2025-12-13T03:49:01.258176",
        "meta_mean_motion": 14.1472808,
        "meta_eccentricity": 0.00629293,
        "meta_inclination": 98.5609,
        "meta_ra_of_asc_node": 325.1462,
        "meta_arg_of_pericenter": 54.1231,
        "meta_mean_anomaly": 306.5764,
        "meta_ephemeris_type": 0,
        "meta_classification_type": "U",
        "meta_norad_cat_id": 36279,
        "meta_element_set_no": 999,
        "meta_rev_at_epoch": 89045,
        "meta_bstar": 0.00020141658,
        "meta_mean_motion_dot": 3.54e-06,
        "meta_mean_motion_ddot": 0,
        "tle_line1": "1 36279U 99025DXG 25347.15904234  .00000354  00000+0  20142-3 0  9994",
        "tle_line2": "2 36279  98.5609 325.1462 0062929  54.1231 306.5764 14.14728080890455"
      },
      "geometry": {
        "type": "Point",
        "coordinates": [
          160.1764425646004,
          53.51210419383244
        ]
      }
    },
    {
      "type": "Feature",
      "properties": {
        "norad_id": 36280,
        "name": "FENGYUN 1C DEB",
        "group": "fengyun-1c-debris",
        "lat": 80.01767480253882,
        "lon": -99.26824869604243,
        "alt_km": 817.7128937154603,
        "timestamp": "2025-12-16T13:52:37.811844+00:00",
        "meta_object_name": "FENGYUN 1C DEB",
        "meta_object_id": "1999-025DXH",
        "meta_epoch": "2025-12-14T08:42:07.968672",
        "meta_mean_motion": 14.09745796,
        "meta_eccentricity": 0.00631161,
        "meta_inclination": 98.7676,
        "meta_ra_of_asc_node": 17.3137,
        "meta_arg_of_pericenter": 60.9601,
        "meta_mean_anomaly": 315.1021,
        "meta_ephemeris_type": 0,
        "meta_classification_type": "U",
        "meta_norad_cat_id": 36280,
        "meta_element_set_no": 999,
        "meta_rev_at_epoch": 86377,
        "meta_bstar": 0.0011193249,
        "meta_mean_motion_dot": 1.96e-05,
        "meta_mean_motion_ddot": 0,
        "tle_line1": "1 36280U 99025DXH 25348.36259223  .00001960  00000+0  11193-2 0  9990",
        "tle_line2": "2 36280  98.7676  17.3137 0063116  60.9601 315.1021 14.09745796863771"
      },
      "geometry": {
        "type": "Point",
        "coordinates": [
          -99.26824869604243,
          80.01767480253882
        ]
      }
    }
  ]
}